[
    {
        "Altitude(m)": 570344.6558872777,
        "Argument of Periapsis(deg)": 0.033114955553567506,
        "Eccentricity": 0.0,
        "Inclination(deg)": 53.0,
        "Latitude(deg)": -49.33668839274951,
        "Longitude(deg)": -99.7298029403739,
        "Mean Anomaly(deg)": 288.63986433788796,
        "RAAN(deg)": 64.95071684264009,
        "Satellite Name": "Starlink Shell 1 300",
        "Satellite Number": 300,
        "Semi-Major Axis(m)": 6931778.249405717,
        "Time(s)": 950
    },
    {
        "Altitude(m)": 570245.4990270183,
        "Argument of Periapsis(deg)": 0.03346353403307874,
        "Eccentricity": 0.0,
        "Inclination(deg)": 53.0,
        "Latitude(deg)": -49.08925805985406,
        "Longitude(deg)": -98.89493817431719,
        "Mean Anomaly(deg)": 289.2666955414447,
        "RAAN(deg)": 64.95019807256261,
        "Satellite Name": "Starlink Shell 1 300",
        "Satellite Number": 300,
        "Semi-Major Axis(m)": 6931778.249405717,
        "Time(s)": 960
    },
    {
        "Altitude(m)": 570143.497132626,
        "Argument of Periapsis(deg)": 0.03381211251258998,
        "Eccentricity": 0.0,
        "Inclination(deg)": 53.0,
        "Latitude(deg)": -48.8352322608102,
        "Longitude(deg)": -98.06883432428963,
        "Mean Anomaly(deg)": 289.8935267450014,
        "RAAN(deg)": 64.94967930248514,
        "Satellite Name": "Starlink Shell 1 300",
        "Satellite Number": 300,
        "Semi-Major Axis(m)": 6931778.249405717,
        "Time(s)": 970
    },
    {
        "Altitude(m)": 570038.690666922,
        "Argument of Periapsis(deg)": 0.034160690992101214,
        "Eccentricity": 0.0,
        "Inclination(deg)": 53.0,
        "Latitude(deg)": -48.574734072786974,
        "Longitude(deg)": -97.25154946061464,
        "Mean Anomaly(deg)": 290.5203579485581,
        "RAAN(deg)": 64.94916053240767,
        "Satellite Name": "Starlink Shell 1 300",
        "Satellite Number": 300,
        "Semi-Major Axis(m)": 6931778.249405717,
        "Time(s)": 980
    },
    {
        "Altitude(m)": 569931.1211887525,
        "Argument of Periapsis(deg)": 0.034509269471612446,
        "Eccentricity": 0.0,
        "Inclination(deg)": 53.0,
        "Latitude(deg)": -48.307886632519114,
        "Longitude(deg)": -96.4431282744478,
        "Mean Anomaly(deg)": 291.1471891521148,
        "RAAN(deg)": 64.9486417623302,
        "Satellite Name": "Starlink Shell 1 300",
        "Satellite Number": 300,
        "Semi-Major Axis(m)": 6931778.249405717,
        "Time(s)": 990
    }
]